[{"OBJECT_NAME":"ONEWEB-0528","OBJECT_ID":"2022-166B","EPOCH":"2026-04-03T23:52:17.334048","MEAN_MOTION":13.21924712,"ECCENTRICITY":0.0001902,"INCLINATION":87.9178,"RA_OF_ASC_NODE":258.7832,"ARG_OF_PERICENTER":94.599,"MEAN_ANOMALY":265.5362,"EPHEMERIS_TYPE":0,"CLASSIFICATION_TYPE":"U","NORAD_CAT_ID":54643,"ELEMENT_SET_NO":999,"REV_AT_EPOCH":16174,"BSTAR":0.018455,"MEAN_MOTION_DOT":7.653e-05,"MEAN_MOTION_DDOT":0.0},{"OBJECT_NAME":"ONEWEB-0539","OBJECT_ID":"2022-166C","EPOCH":"2026-04-04T04:25:07.994784","MEAN_MOTION":13.21806883,"ECCENTRICITY":0.0001669,"INCLINATION":87.9181,"RA_OF_ASC_NODE":258.712,"ARG_OF_PERICENTER":106.5153,"MEAN_ANOMALY":253.6164,"EPHEMERIS_TYPE":0,"CLASSIFICATION_TYPE":"U","NORAD_CAT_ID":54644,"ELEMENT_SET_NO":999,"REV_AT_EPOCH":16176,"BSTAR":-0.0046134,"MEAN_MOTION_DOT":-1.891e-05,"MEAN_MOTION_DDOT":0.0},{"OBJECT_NAME":"ONEWEB-0540","OBJECT_ID":"2022-166D","EPOCH":"2026-04-04T04:34:54.763104","MEAN_MOTION":13.21707564,"ECCENTRICITY":0.0002369,"INCLINATION":87.9169,"RA_OF_ASC_NODE":258.7456,"ARG_OF_PERICENTER":112.9146,"MEAN_ANOMALY":247.2238,"EPHEMERIS_TYPE":0,"CLASSIFICATION_TYPE":"U","NORAD_CAT_ID":54645,"ELEMENT_SET_NO":999,"REV_AT_EPOCH":16175,"BSTAR":0.030192000000000004,"MEAN_MOTION_DOT":0.00012478,"MEAN_MOTION_DDOT":0.0},{"OBJECT_NAME":"ONEWEB-0542","OBJECT_ID":"2022-166E","EPOCH":"2026-04-03T21:23:25.971648","MEAN_MOTION":13.21774775,"ECCENTRICITY":0.0002112,"INCLINATION":87.9194,"RA_OF_ASC_NODE":258.7677,"ARG_OF_PERICENTER":104.5193,"MEAN_ANOMALY":255.6176,"EPHEMERIS_TYPE":0,"CLASSIFICATION_TYPE":"U","NORAD_CAT_ID":54646,"ELEMENT_SET_NO":999,"REV_AT_EPOCH":16172,"BSTAR":-0.0079662,"MEAN_MOTION_DOT":-3.273e-05,"MEAN_MOTION_DDOT":0.0},{"OBJECT_NAME":"ONEWEB-0545","OBJECT_ID":"2022-166F","EPOCH":"2026-04-04T00:11:17.986848","MEAN_MOTION":13.21899887,"ECCENTRICITY":0.0001615,"INCLINATION":87.9178,"RA_OF_ASC_NODE":258.7625,"ARG_OF_PERICENTER":114.324,"MEAN_ANOMALY":245.8062,"EPHEMERIS_TYPE":0,"CLASSIFICATION_TYPE":"U","NORAD_CAT_ID":54647,"ELEMENT_SET_NO":999,"REV_AT_EPOCH":16170,"BSTAR":0.00014488,"MEAN_MOTION_DOT":7.3e-07,"MEAN_MOTION_DDOT":0.0},{"OBJECT_NAME":"ONEWEB-0580","OBJECT_ID":"2022-166G","EPOCH":"2026-04-04T05:00:58.648896","MEAN_MOTION":13.21694815,"ECCENTRICITY":0.0001579,"INCLINATION":87.9187,"RA_OF_ASC_NODE":258.7217,"ARG_OF_PERICENTER":107.4241,"MEAN_ANOMALY":252.7065,"EPHEMERIS_TYPE":0,"CLASSIFICATION_TYPE":"U","NORAD_CAT_ID":54648,"ELEMENT_SET_NO":999,"REV_AT_EPOCH":16177,"BSTAR":-0.0014116,"MEAN_MOTION_DOT":-5.69e-06,"MEAN_MOTION_DDOT":0.0},{"OBJECT_NAME":"ONEWEB-0582","OBJECT_ID":"2022-166H","EPOCH":"2026-04-04T04:13:11.310240","MEAN_MOTION":13.21830925,"ECCENTRICITY":0.000165,"INCLINATION":87.9177,"RA_OF_ASC_NODE":258.7212,"ARG_OF_PERICENTER":111.8285,"MEAN_ANOMALY":248.3025,"EPHEMERIS_TYPE":0,"CLASSIFICATION_TYPE":"U","NORAD_CAT_ID":54649,"ELEMENT_SET_NO":999,"REV_AT_EPOCH":16174,"BSTAR":-0.00025816,"MEAN_MOTION_DOT":-9.4e-07,"MEAN_MOTION_DDOT":0.0},{"OBJECT_NAME":"ONEWEB-0583","OBJECT_ID":"2022-166J","EPOCH":"2026-04-04T04:29:55.389696","MEAN_MOTION":13.21785162,"ECCENTRICITY":0.0001746,"INCLINATION":87.9177,"RA_OF_ASC_NODE":258.7422,"ARG_OF_PERICENTER":102.0334,"MEAN_ANOMALY":258.0996,"EPHEMERIS_TYPE":0,"CLASSIFICATION_TYPE":"U","NORAD_CAT_ID":54650,"ELEMENT_SET_NO":999,"REV_AT_EPOCH":16175,"BSTAR":-2.0341e-05,"MEAN_MOTION_DOT":5e-08,"MEAN_MOTION_DDOT":0.0},{"OBJECT_NAME":"ONEWEB-0584","OBJECT_ID":"2022-166K","EPOCH":"2026-04-04T04:58:35.832288","MEAN_MOTION":13.21709063,"ECCENTRICITY":0.0001525,"INCLINATION":87.9174,"RA_OF_ASC_NODE":258.7256,"ARG_OF_PERICENTER":107.4021,"MEAN_ANOMALY":252.728,"EPHEMERIS_TYPE":0,"CLASSIFICATION_TYPE":"U","NORAD_CAT_ID":54651,"ELEMENT_SET_NO":999,"REV_AT_EPOCH":16174,"BSTAR":-0.0032982000000000003,"MEAN_MOTION_DOT":-1.347e-05,"MEAN_MOTION_DDOT":0.0},{"OBJECT_NAME":"ONEWEB-0585","OBJECT_ID":"2022-166L","EPOCH":"2026-04-04T03:44:33.682560","MEAN_MOTION":13.21906726,"ECCENTRICITY":0.0001779,"INCLINATION":87.9177,"RA_OF_ASC_NODE":258.7204,"ARG_OF_PERICENTER":92.817,"MEAN_ANOMALY":267.3168,"EPHEMERIS_TYPE":0,"CLASSIFICATION_TYPE":"U","NORAD_CAT_ID":54652,"ELEMENT_SET_NO":999,"REV_AT_EPOCH":16174,"BSTAR":0.004204,"MEAN_MOTION_DOT":1.752e-05,"MEAN_MOTION_DDOT":0.0},{"OBJECT_NAME":"ONEWEB-0586","OBJECT_ID":"2022-166M","EPOCH":"2026-04-04T04:03:40.707360","MEAN_MOTION":13.21855843,"ECCENTRICITY":0.0001721,"INCLINATION":87.9178,"RA_OF_ASC_NODE":258.7437,"ARG_OF_PERICENTER":104.7419,"MEAN_ANOMALY":255.3906,"EPHEMERIS_TYPE":0,"CLASSIFICATION_TYPE":"U","NORAD_CAT_ID":54653,"ELEMENT_SET_NO":999,"REV_AT_EPOCH":16174,"BSTAR":0.0025375,"MEAN_MOTION_DOT":1.062e-05,"MEAN_MOTION_DDOT":0.0},{"OBJECT_NAME":"ONEWEB-0587","OBJECT_ID":"2022-166N","EPOCH":"2026-04-04T04:17:59.670240","MEAN_MOTION":13.21819944,"ECCENTRICITY":0.0001958,"INCLINATION":87.9189,"RA_OF_ASC_NODE":258.7077,"ARG_OF_PERICENTER":87.2148,"MEAN_ANOMALY":272.921,"EPHEMERIS_TYPE":0,"CLASSIFICATION_TYPE":"U","NORAD_CAT_ID":54654,"ELEMENT_SET_NO":999,"REV_AT_EPOCH":16190,"BSTAR":7.4882e-05,"MEAN_MOTION_DOT":4.4e-07,"MEAN_MOTION_DDOT":0.0},{"OBJECT_NAME":"ONEWEB-0589","OBJECT_ID":"2022-166P","EPOCH":"2026-04-04T00:20:52.320480","MEAN_MOTION":13.21873514,"ECCENTRICITY":0.0001371,"INCLINATION":87.9177,"RA_OF_ASC_NODE":258.7627,"ARG_OF_PERICENTER":127.0964,"MEAN_ANOMALY":233.0296,"EPHEMERIS_TYPE":0,"CLASSIFICATION_TYPE":"U","NORAD_CAT_ID":54655,"ELEMENT_SET_NO":999,"REV_AT_EPOCH":16174,"BSTAR":-2.6599e-06,"MEAN_MOTION_DOT":1.2e-07,"MEAN_MOTION_DDOT":0.0},{"OBJECT_NAME":"ONEWEB-0590","OBJECT_ID":"2022-166Q","EPOCH":"2026-04-03T21:18:27.849312","MEAN_MOTION":13.21788443,"ECCENTRICITY":0.00015,"INCLINATION":87.918,"RA_OF_ASC_NODE":258.7706,"ARG_OF_PERICENTER":87.243,"MEAN_ANOMALY":272.8876,"EPHEMERIS_TYPE":0,"CLASSIFICATION_TYPE":"U","NORAD_CAT_ID":54656,"ELEMENT_SET_NO":999,"REV_AT_EPOCH":16171,"BSTAR":-0.0078717,"MEAN_MOTION_DOT":-3.235e-05,"MEAN_MOTION_DDOT":0.0},{"OBJECT_NAME":"ONEWEB-0591","OBJECT_ID":"2022-166R","EPOCH":"2026-04-04T04:51:25.092864","MEAN_MOTION":13.21726499,"ECCENTRICITY":0.0001658,"INCLINATION":87.9186,"RA_OF_ASC_NODE":258.7282,"ARG_OF_PERICENTER":95.9131,"MEAN_ANOMALY":264.2192,"EPHEMERIS_TYPE":0,"CLASSIFICATION_TYPE":"U","NORAD_CAT_ID":54657,"ELEMENT_SET_NO":999,"REV_AT_EPOCH":16178,"BSTAR":-0.0012238000000000001,"MEAN_MOTION_DOT":-4.92e-06,"MEAN_MOTION_DDOT":0.0},{"OBJECT_NAME":"ONEWEB-0592","OBJECT_ID":"2022-166S","EPOCH":"2026-04-04T04:56:11.317920","MEAN_MOTION":13.21719747,"ECCENTRICITY":0.0001486,"INCLINATION":87.9186,"RA_OF_ASC_NODE":258.6996,"ARG_OF_PERICENTER":117.01,"MEAN_ANOMALY":243.1186,"EPHEMERIS_TYPE":0,"CLASSIFICATION_TYPE":"U","NORAD_CAT_ID":54658,"ELEMENT_SET_NO":999,"REV_AT_EPOCH":16166,"BSTAR":-0.005327800000000001,"MEAN_MOTION_DOT":-2.183e-05,"MEAN_MOTION_DDOT":0.0},{"OBJECT_NAME":"ONEWEB-0593","OBJECT_ID":"2022-166T","EPOCH":"2026-04-04T00:01:47.408160","MEAN_MOTION":13.21915719,"ECCENTRICITY":0.000176,"INCLINATION":87.9179,"RA_OF_ASC_NODE":258.7579,"ARG_OF_PERICENTER":101.3517,"MEAN_ANOMALY":258.7815,"EPHEMERIS_TYPE":0,"CLASSIFICATION_TYPE":"U","NORAD_CAT_ID":54659,"ELEMENT_SET_NO":999,"REV_AT_EPOCH":16174,"BSTAR":0.005218,"MEAN_MOTION_DOT":2.171e-05,"MEAN_MOTION_DDOT":0.0},{"OBJECT_NAME":"ONEWEB-0594","OBJECT_ID":"2022-166U","EPOCH":"2026-04-04T05:57:25.046784","MEAN_MOTION":13.2184611,"ECCENTRICITY":0.000182,"INCLINATION":87.9177,"RA_OF_ASC_NODE":258.7258,"ARG_OF_PERICENTER":95.0349,"MEAN_ANOMALY":265.0992,"EPHEMERIS_TYPE":0,"CLASSIFICATION_TYPE":"U","NORAD_CAT_ID":54660,"ELEMENT_SET_NO":999,"REV_AT_EPOCH":16179,"BSTAR":3.0454e-05,"MEAN_MOTION_DOT":2.6e-07,"MEAN_MOTION_DDOT":0.0},{"OBJECT_NAME":"ONEWEB-0595","OBJECT_ID":"2022-166V","EPOCH":"2026-04-04T03:35:00.290688","MEAN_MOTION":13.21928343,"ECCENTRICITY":0.0001681,"INCLINATION":87.9185,"RA_OF_ASC_NODE":258.7202,"ARG_OF_PERICENTER":91.1764,"MEAN_ANOMALY":268.9563,"EPHEMERIS_TYPE":0,"CLASSIFICATION_TYPE":"U","NORAD_CAT_ID":54661,"ELEMENT_SET_NO":999,"REV_AT_EPOCH":16175,"BSTAR":0.0066148,"MEAN_MOTION_DOT":2.75e-05,"MEAN_MOTION_DDOT":0.0},{"OBJECT_NAME":"ONEWEB-0596","OBJECT_ID":"2022-166W","EPOCH":"2026-04-04T04:46:38.774496","MEAN_MOTION":13.21741572,"ECCENTRICITY":0.0001676,"INCLINATION":87.9184,"RA_OF_ASC_NODE":258.7262,"ARG_OF_PERICENTER":92.9808,"MEAN_ANOMALY":267.1518,"EPHEMERIS_TYPE":0,"CLASSIFICATION_TYPE":"U","NORAD_CAT_ID":54662,"ELEMENT_SET_NO":999,"REV_AT_EPOCH":16176,"BSTAR":-0.0024374,"MEAN_MOTION_DOT":-9.92e-06,"MEAN_MOTION_DDOT":0.0},{"OBJECT_NAME":"ONEWEB-0597","OBJECT_ID":"2022-166X","EPOCH":"2026-04-04T04:20:21.456096","MEAN_MOTION":13.21815036,"ECCENTRICITY":0.0001658,"INCLINATION":87.9181,"RA_OF_ASC_NODE":258.7343,"ARG_OF_PERICENTER":101.5841,"MEAN_ANOMALY":258.5479,"EPHEMERIS_TYPE":0,"CLASSIFICATION_TYPE":"U","NORAD_CAT_ID":54663,"ELEMENT_SET_NO":999,"REV_AT_EPOCH":16176,"BSTAR":-0.0021753000000000002,"MEAN_MOTION_DOT":-8.85e-06,"MEAN_MOTION_DDOT":0.0},{"OBJECT_NAME":"ONEWEB-0600","OBJECT_ID":"2022-166Y","EPOCH":"2026-04-04T03:54:07.453728","MEAN_MOTION":13.21878271,"ECCENTRICITY":0.0001957,"INCLINATION":87.9179,"RA_OF_ASC_NODE":258.729,"ARG_OF_PERICENTER":101.7069,"MEAN_ANOMALY":258.4285,"EPHEMERIS_TYPE":0,"CLASSIFICATION_TYPE":"U","NORAD_CAT_ID":54664,"ELEMENT_SET_NO":999,"REV_AT_EPOCH":16173,"BSTAR":0.0045671,"MEAN_MOTION_DOT":1.901e-05,"MEAN_MOTION_DDOT":0.0},{"OBJECT_NAME":"ONEWEB-0601","OBJECT_ID":"2022-166Z","EPOCH":"2026-04-04T03:42:09.786816","MEAN_MOTION":13.21907701,"ECCENTRICITY":0.0001509,"INCLINATION":87.9177,"RA_OF_ASC_NODE":258.7476,"ARG_OF_PERICENTER":107.3824,"MEAN_ANOMALY":252.7476,"EPHEMERIS_TYPE":0,"CLASSIFICATION_TYPE":"U","NORAD_CAT_ID":54665,"ELEMENT_SET_NO":999,"REV_AT_EPOCH":16192,"BSTAR":0.0062439999999999996,"MEAN_MOTION_DOT":2.596e-05,"MEAN_MOTION_DDOT":0.0}]